OBJECT_NAME,OBJECT_ID,EPOCH,MEAN_MOTION,ECCENTRICITY,INCLINATION,RA_OF_ASC_NODE,ARG_OF_PERICENTER,MEAN_ANOMALY,EPHEMERIS_TYPE,CLASSIFICATION_TYPE,NORAD_CAT_ID,ELEMENT_SET_NO,REV_AT_EPOCH,BSTAR,MEAN_MOTION_DOT,MEAN_MOTION_DDOT
STARLINK-36604,2026-049A,2026-07-23T05:15:26.716608,15.33447247,.0001983,97.2878,224.9826,131.8689,228.2723,0,U,68142,999,2041,.79583E-3,.25707E-3,0
STARLINK-36995,2026-049B,2026-07-23T12:41:47.512032,15.33451603,.0000365,97.2824,225.3223,103.5201,256.6082,0,U,68143,999,2046,.72517E-3,.23413E-3,0
STARLINK-37020,2026-049C,2026-07-23T07:36:23.761152,15.33448534,.00019044,97.2858,225.1543,99.5952,260.5506,0,U,68144,999,2043,.41792216E-3,.13443E-3,0
STARLINK-36244,2026-049D,2026-07-23T07:52:02.695008,15.33481947,.000137,97.2865,225.1377,107.1472,252.9921,0,U,68145,999,2043,.79076E-3,.2557E-3,0
STARLINK-36980,2026-049E,2026-07-23T11:58:43.504032,15.33446911,.0000851,97.2835,225.3674,113.5462,246.5870,0,U,68146,999,2046,.76916E-3,.24839E-3,0
STARLINK-37055,2026-049F,2026-07-23T00:17:53.133792,15.33467815,.0002199,97.2830,224.8026,113.9496,246.1977,0,U,68147,999,2038,.10638544E-2,.34453E-3,0
STARLINK-36981,2026-049G,2026-07-23T07:44:14.300736,15.33418562,.0001323,97.2856,225.1428,85.8342,274.3052,0,U,68148,999,2043,.16012E-3,.5094E-4,0
STARLINK-36992,2026-049H,2026-07-23T01:04:51.704832,15.33470418,.0002209,97.2887,224.9177,127.7725,232.3718,0,U,68149,999,2039,.81064673E-3,.26209E-3,0
STARLINK-37060,2026-049J,2026-07-23T01:16:36.574176,15.33474895,.0003386,97.2841,224.8995,129.9841,230.1700,0,U,68150,999,2039,.11904965E-2,.38597E-3,0
STARLINK-37073,2026-049K,2026-07-23T01:24:26.559072,15.33449092,.0000555,97.2862,224.8927,123.4903,236.6393,0,U,68151,999,2039,.88272744E-3,.28534E-3,0
STARLINK-37049,2026-049L,2026-07-23T07:12:54.468288,15.33434519,.0000494,97.2820,225.1750,108.8849,251.2448,0,U,68152,999,2043,.61929E-3,.19964E-3,0
STARLINK-37072,2026-049M,2026-07-23T12:30:02.697984,15.33463940,.0000689,97.2846,225.3373,136.0594,224.0703,0,U,68153,999,2046,.86751E-3,.28052E-3,0
STARLINK-36241,2026-049N,2026-07-23T11:43:04.082880,15.33442902,.0001268,97.2864,225.2276,127.3192,232.8166,0,U,68154,999,2045,.8158E-3,.26352E-3,0
STARLINK-37048,2026-049P,2026-07-23T00:49:12.248256,15.33451160,.0001501,97.2868,224.7770,126.7260,233.4121,0,U,68155,999,2038,.32660639E-3,.10486E-3,0
STARLINK-36313,2026-049Q,2026-07-23T11:39:08.963424,15.33454967,.0001278,97.2845,225.2322,102.8047,257.3339,0,U,68156,999,2045,.70644E-3,.22808E-3,0
STARLINK-37064,2026-049R,2026-07-23T07:28:34.170240,15.33438286,.000091,97.2847,225.1607,114.0325,246.1013,0,U,68157,999,2043,.5387E-3,.17352E-3,0
STARLINK-37069,2026-049S,2026-07-23T11:35:12.516000,15.33450068,.0001534,97.2835,225.2340,97.5218,262.6199,0,U,68158,999,2045,-.1067E-3,-.3519E-4,0
STARLINK-37053,2026-049T,2026-07-23T07:55:58.364832,15.33445003,.0000783,97.2874,225.1370,126.9122,233.2193,0,U,68159,999,2043,.65644E-3,.21176E-3,0
STARLINK-36306,2026-049U,2026-07-23T11:19:34.224960,15.33456948,.0000393,97.2853,225.2482,92.7438,267.3849,0,U,68160,999,2045,.84545E-3,.27328E-3,0
STARLINK-37057,2026-049V,2026-07-23T00:29:37.756032,15.33465738,.0000754,97.2830,224.7915,99.8372,260.2956,0,U,68161,999,2038,.98471674E-3,.3187E-3,0
STARLINK-37013,2026-049W,2026-07-23T12:45:42.470784,15.33440813,.0000294,97.2819,225.3198,87.8532,272.2744,0,U,68162,999,2046,.72263E-3,.23323E-3,0
STARLINK-36958,2026-049X,2026-07-23T00:53:09.367008,15.33459441,.00019722,97.2837,224.7688,77.2791,282.8673,0,U,68163,999,2038,.10076869E-2,.32613E-3,0
STARLINK-37002,2026-049Y,2026-07-23T00:25:42.919104,15.33467331,.00008372,97.2864,224.7956,82.4418,277.6920,0,U,68164,999,2038,.10535553E-2,.34115E-3,0
STARLINK-36971,2026-049Z,2026-07-23T12:06:33.616800,15.33461373,.0000628,97.2829,225.3566,111.5954,248.5356,0,U,68165,999,2046,.10024E-2,.3244E-3,0
STARLINK-36273,2026-049AA,2026-07-23T11:49:07.838112,15.33462899,.0001532,97.2843,226.1379,101.9997,258.1418,0,U,68166,999,2051,.57788E-3,.18638E-3,0
STARLINK-36969,2026-050A,2026-07-23T10:47:48.813792,15.34396354,.0000414,53.1595,353.6857,91.3449,268.7601,0,U,68167,999,2150,.55626E-3,.18462E-3,0
STARLINK-36984,2026-050B,2026-07-23T10:38:45.992832,15.34414570,.0001037,53.1594,353.6531,115.0368,245.0742,0,U,68168,999,2150,.9188E-3,.30809E-3,0
STARLINK-37077,2026-050C,2026-07-23T19:22:15.502368,15.34406501,.0001552,53.1607,352.3577,67.7853,292.3314,0,U,68169,999,2155,.12283E-2,.41362E-3,0
STARLINK-37003,2026-050D,2026-07-23T18:12:33.335424,15.34430251,.0001034,53.1647,352.0568,339.7819,20.3142,0,U,68170,999,2155,.10193E-2,.34254E-3,0
STARLINK-37034,2026-050E,2026-07-23T18:54:57.969216,15.34406250,.0001865,53.1606,352.2345,210.4992,149.5902,0,U,68171,999,2155,.82176E-3,.27496E-3,0
