STARLINK-36604          
1 68142U 26049A   26204.21905922  .00025707  00000+0  79583-3 0  9991
2 68142  97.2878 224.9826 0001983 131.8689 228.2723 15.33447247 20417
STARLINK-36995          
1 68143U 26049B   26204.52902213  .00023413  00000+0  72517-3 0  9998
2 68143  97.2824 225.3223 0000365 103.5201 256.6082 15.33451603 20463
STARLINK-37020          
1 68144U 26049C   26204.31694168  .00013443  00000+0  41792-3 0  9996
2 68144  97.2858 225.1543 0001904  99.5952 260.5506 15.33448534 20432
STARLINK-36244          
1 68145U 26049D   26204.32780897  .00025570  00000+0  79076-3 0  9993
2 68145  97.2865 225.1377 0001370 107.1472 252.9921 15.33481947 20437
STARLINK-36980          
1 68146U 26049E   26204.49911463  .00024839  00000+0  76916-3 0  9994
2 68146  97.2835 225.3674 0000851 113.5462 246.5870 15.33446911 20467
STARLINK-37055          
1 68147U 26049F   26204.01242053  .00034453  00000+0  10639-2 0  9997
2 68147  97.2830 224.8026 0002199 113.9496 246.1977 15.33467815 20387
STARLINK-36981          
1 68148U 26049G   26204.32238774  .00005094  00000+0  16012-3 0  9998
2 68148  97.2856 225.1428 0001323  85.8342 274.3052 15.33418562 20439
STARLINK-36992          
1 68149U 26049H   26204.04504288  .00026209  00000+0  81065-3 0  9995
2 68149  97.2887 224.9177 0002209 127.7725 232.3718 15.33470418 20393
STARLINK-37060          
1 68150U 26049J   26204.05320109  .00038597  00000+0  11905-2 0  9994
2 68150  97.2841 224.8995 0003386 129.9841 230.1700 15.33474895 20392
STARLINK-37073          
1 68151U 26049K   26204.05864073  .00028534  00000+0  88273-3 0  9991
2 68151  97.2862 224.8927 0000555 123.4903 236.6393 15.33449092 20394
STARLINK-37049          
1 68152U 26049L   26204.30063042  .00019964  00000+0  61929-3 0  9993
2 68152  97.2820 225.1750 0000494 108.8849 251.2448 15.33434519 20432
STARLINK-37072          
1 68153U 26049M   26204.52086456  .00028052  00000+0  86751-3 0  9990
2 68153  97.2846 225.3373 0000689 136.0594 224.0703 15.33463940 20465
STARLINK-36241          
1 68154U 26049N   26204.48824170  .00026352  00000+0  81580-3 0  9995
2 68154  97.2864 225.2276 0001268 127.3192 232.8166 15.33442902 20452
STARLINK-37048          
1 68155U 26049P   26204.03416954  .00010486  00000+0  32661-3 0  9991
2 68155  97.2868 224.7770 0001501 126.7260 233.4121 15.33451160 20385
STARLINK-36313          
1 68156U 26049Q   26204.48552041  .00022808  00000+0  70644-3 0  9993
2 68156  97.2845 225.2322 0001278 102.8047 257.3339 15.33454967 20451
STARLINK-37064          
1 68157U 26049R   26204.31150660  .00017352  00000+0  53870-3 0  9997
2 68157  97.2847 225.1607 0000910 114.0325 246.1013 15.33438286 20434
STARLINK-37069          
1 68158U 26049S   26204.48278375 -.00003519  00000+0 -10670-3 0  9993
2 68158  97.2835 225.2340 0001534  97.5218 262.6199 15.33450068 20458
STARLINK-37053          
1 68159U 26049T   26204.33053663  .00021176  00000+0  65644-3 0  9997
2 68159  97.2874 225.1370 0000783 126.9122 233.2193 15.33445003 20439
STARLINK-36306          
1 68160U 26049U   26204.47192390  .00027328  00000+0  84545-3 0  9991
2 68160  97.2853 225.2482 0000393  92.7438 267.3849 15.33456948 20458
STARLINK-37057          
1 68161U 26049V   26204.02057588  .00031870  00000+0  98472-3 0  9993
2 68161  97.2830 224.7915 0000754  99.8372 260.2956 15.33465738 20385
STARLINK-37013          
1 68162U 26049W   26204.53174156  .00023323  00000+0  72263-3 0  9995
2 68162  97.2819 225.3198 0000294  87.8532 272.2744 15.33440813 20461
STARLINK-36958          
1 68163U 26049X   26204.03691397  .00032613  00000+0  10077-2 0  9998
2 68163  97.2837 224.7688 0001972  77.2791 282.8673 15.33459441 20389
STARLINK-37002          
1 68164U 26049Y   26204.01785786  .00034115  00000+0  10536-2 0  9992
2 68164  97.2864 224.7956 0000837  82.4418 277.6920 15.33467331 20385
STARLINK-36971          
1 68165U 26049Z   26204.50455575  .00032440  00000+0  10024-2 0  9998
2 68165  97.2829 225.3566 0000628 111.5954 248.5356 15.33461373 20467
STARLINK-36273          
1 68166U 26049AA  26204.49245183  .00018638  00000+0  57788-3 0  9991
2 68166  97.2843 226.1379 0001532 101.9997 258.1418 15.33462899 20516
STARLINK-36969          
1 68167U 26050A   26204.44987053  .00018462  00000+0  55626-3 0  9992
2 68167  53.1595 353.6857 0000414  91.3449 268.7601 15.34396354 21505
STARLINK-36984          
1 68168U 26050B   26204.44358788  .00030809  00000+0  91880-3 0  9991
2 68168  53.1594 353.6531 0001037 115.0368 245.0742 15.34414570 21505
STARLINK-37077          
1 68169U 26050C   26204.80712387  .00041362  00000+0  12283-2 0  9996
2 68169  53.1607 352.3577 0001552  67.7853 292.3314 15.34406501 21551
STARLINK-37003          
1 68170U 26050D   26204.75871916  .00034254  00000+0  10193-2 0  9996
2 68170  53.1647 352.0568 0001034 339.7819  20.3142 15.34430251 21550
STARLINK-37034          
1 68171U 26050E   26204.78817094  .00027496  00000+0  82176-3 0  9998
2 68171  53.1606 352.2345 0001865 210.4992 149.5902 15.34406250 21550
